{
  "type": "FeatureCollection",
  "features": [
    {
      "type": "Feature",
      "properties": {
        "norad_id": 38709,
        "name": "EXACTVIEW-1 (ADS-1B)",
        "group": "resource",
        "lat": -64.18808467601968,
        "lon": 112.30207764218756,
        "alt_km": 812.7222860377278,
        "timestamp": "2025-12-10T21:43:21.743411+00:00",
        "meta_object_name": "EXACTVIEW-1 (ADS-1B)",
        "meta_object_id": "2012-039C",
        "meta_epoch": "2025-12-10T13:36:13.296384",
        "meta_mean_motion": 14.24906733,
        "meta_eccentricity": 0.00107821,
        "meta_inclination": 98.9635,
        "meta_ra_of_asc_node": 92.9113,
        "meta_arg_of_pericenter": 0.5572,
        "meta_mean_anomaly": 359.5616,
        "meta_ephemeris_type": 0,
        "meta_classification_type": "U",
        "meta_norad_cat_id": 38709,
        "meta_element_set_no": 999,
        "meta_rev_at_epoch": 69584,
        "meta_bstar": 0.00014175284,
        "meta_mean_motion_dot": 2.85e-06,
        "meta_mean_motion_ddot": 0,
        "tle_line1": "1 38709U 12039C   25344.56682056  .00000285  00000+0  14175-3 0  9993",
        "tle_line2": "2 38709  98.9635  92.9113 0010782   0.5572 359.5616 14.24906733695847"
      },
      "geometry": {
        "type": "Point",
        "coordinates": [
          112.30207764218756,
          -64.18808467601968
        ]
      }
    },
    {
      "type": "Feature",
      "properties": {
        "norad_id": 38755,
        "name": "SPOT 6",
        "group": "resource",
        "lat": 76.56460492269397,
        "lon": -93.37794357762868,
        "alt_km": 689.6930946692437,
        "timestamp": "2025-12-10T21:43:21.743422+00:00",
        "meta_object_name": "SPOT 6",
        "meta_object_id": "2012-047A",
        "meta_epoch": "2025-12-10T14:40:38.217216",
        "meta_mean_motion": 14.58600385,
        "meta_eccentricity": 0.00010949,
        "meta_inclination": 98.1569,
        "meta_ra_of_asc_node": 49.4349,
        "meta_arg_of_pericenter": 95.9048,
        "meta_mean_anomaly": 264.2276,
        "meta_ephemeris_type": 0,
        "meta_classification_type": "U",
        "meta_norad_cat_id": 38755,
        "meta_element_set_no": 999,
        "meta_rev_at_epoch": 70556,
        "meta_bstar": 0.00017167333,
        "meta_mean_motion_dot": 7.54e-06,
        "meta_mean_motion_ddot": 0,
        "tle_line1": "1 38755U 12047A   25344.61155344  .00000754  00000+0  17167-3 0  9999",
        "tle_line2": "2 38755  98.1569  49.4349 0001094  95.9048 264.2276 14.58600385705562"
      },
      "geometry": {
        "type": "Point",
        "coordinates": [
          -93.37794357762868,
          76.56460492269397
        ]
      }
    },
    {
      "type": "Feature",
      "properties": {
        "norad_id": 39019,
        "name": "PLEIADES 1B",
        "group": "resource",
        "lat": -0.5529213345854919,
        "lon": 57.66516070094125,
        "alt_km": 700.7674069401683,
        "timestamp": "2025-12-10T21:43:21.743433+00:00",
        "meta_object_name": "PLEIADES 1B",
        "meta_object_id": "2012-068A",
        "meta_epoch": "2025-12-10T15:08:22.123968",
        "meta_mean_motion": 14.58550062,
        "meta_eccentricity": 0.0001235,
        "meta_inclination": 98.1792,
        "meta_ra_of_asc_node": 57.3157,
        "meta_arg_of_pericenter": 80.7807,
        "meta_mean_anomaly": 279.3532,
        "meta_ephemeris_type": 0,
        "meta_classification_type": "U",
        "meta_norad_cat_id": 39019,
        "meta_element_set_no": 999,
        "meta_rev_at_epoch": 69336,
        "meta_bstar": 0.00017857445,
        "meta_mean_motion_dot": 7.85e-06,
        "meta_mean_motion_ddot": 0,
        "tle_line1": "1 39019U 12068A   25344.63081162  .00000785  00000+0  17857-3 0  9994",
        "tle_line2": "2 39019  98.1792  57.3157 0001235  80.7807 279.3532 14.58550062693363"
      },
      "geometry": {
        "type": "Point",
        "coordinates": [
          57.66516070094125,
          -0.5529213345854919
        ]
      }
    },
    {
      "type": "Feature",
      "properties": {
        "norad_id": 39030,
        "name": "GOKTURK 2",
        "group": "resource",
        "lat": 73.50649160669725,
        "lon": 33.79680785416339,
        "alt_km": 636.5313240207824,
        "timestamp": "2025-12-10T21:43:21.743443+00:00",
        "meta_object_name": "GOKTURK 2",
        "meta_object_id": "2012-073A",
        "meta_epoch": "2025-12-10T14:44:20.895072",
        "meta_mean_motion": 14.75287003,
        "meta_eccentricity": 9.635e-05,
        "meta_inclination": 97.6892,
        "meta_ra_of_asc_node": 186.3721,
        "meta_arg_of_pericenter": 103.3815,
        "meta_mean_anomaly": 256.7503,
        "meta_ephemeris_type": 0,
        "meta_classification_type": "U",
        "meta_norad_cat_id": 39030,
        "meta_element_set_no": 999,
        "meta_rev_at_epoch": 69670,
        "meta_bstar": 0.00016889187,
        "meta_mean_motion_dot": 1.096e-05,
        "meta_mean_motion_ddot": 0,
        "tle_line1": "1 39030U 12073A   25344.61413073  .00001096  00000+0  16889-3 0  9991",
        "tle_line2": "2 39030  97.6892 186.3721 0000963 103.3815 256.7503 14.75287003696708"
      },
      "geometry": {
        "type": "Point",
        "coordinates": [
          33.79680785416339,
          73.50649160669725
        ]
      }
    },
    {
      "type": "Feature",
      "properties": {
        "norad_id": 39084,
        "name": "LANDSAT 8",
        "group": "resource",
        "lat": 0.7658492893109886,
        "lon": -126.88392152484504,
        "alt_km": 705.4302363328607,
        "timestamp": "2025-12-10T21:43:21.743453+00:00",
        "meta_object_name": "LANDSAT 8",
        "meta_object_id": "2013-008A",
        "meta_epoch": "2025-12-10T14:18:40.133376",
        "meta_mean_motion": 14.57110811,
        "meta_eccentricity": 0.00011108,
        "meta_inclination": 98.2074,
        "meta_ra_of_asc_node": 52.7013,
        "meta_arg_of_pericenter": 87.6542,
        "meta_mean_anomaly": 272.4784,
        "meta_ephemeris_type": 0,
        "meta_classification_type": "U",
        "meta_norad_cat_id": 39084,
        "meta_element_set_no": 999,
        "meta_rev_at_epoch": 67043,
        "meta_bstar": 0.00016176495,
        "meta_mean_motion_dot": 6.84e-06,
        "meta_mean_motion_ddot": 0,
        "tle_line1": "1 39084U 13008A   25344.59629784  .00000684  00000+0  16176-3 0  9995",
        "tle_line2": "2 39084  98.2074  52.7013 0001110  87.6542 272.4784 14.57110811670432"
      },
      "geometry": {
        "type": "Point",
        "coordinates": [
          -126.88392152484504,
          0.7658492893109886
        ]
      }
    },
    {
      "type": "Feature",
      "properties": {
        "norad_id": 39086,
        "name": "SARAL",
        "group": "resource",
        "lat": -34.30335416113664,
        "lon": 174.7506270805795,
        "alt_km": 790.4007494142634,
        "timestamp": "2025-12-10T21:43:21.743463+00:00",
        "meta_object_name": "SARAL",
        "meta_object_id": "2013-009A",
        "meta_epoch": "2025-12-10T15:10:49.369440",
        "meta_mean_motion": 14.32755932,
        "meta_eccentricity": 0.0002829,
        "meta_inclination": 98.5503,
        "meta_ra_of_asc_node": 168.5905,
        "meta_arg_of_pericenter": 112.6057,
        "meta_mean_anomaly": 247.5427,
        "meta_ephemeris_type": 0,
        "meta_classification_type": "U",
        "meta_norad_cat_id": 39086,
        "meta_element_set_no": 999,
        "meta_rev_at_epoch": 66860,
        "meta_bstar": 9.5686776e-05,
        "meta_mean_motion_dot": 2.17e-06,
        "meta_mean_motion_ddot": 0,
        "tle_line1": "1 39086U 13009A   25344.63251585  .00000217  00000+0  95687-4 0  9990",
        "tle_line2": "2 39086  98.5503 168.5905 0002829 112.6057 247.5427 14.32755932668603"
      },
      "geometry": {
        "type": "Point",
        "coordinates": [
          174.7506270805795,
          -34.30335416113664
        ]
      }
    },
    {
      "type": "Feature",
      "properties": {
        "norad_id": 39150,
        "name": "GAOFEN-1",
        "group": "resource",
        "lat": 5.342009707759433,
        "lon": -123.65639881896647,
        "alt_km": 631.2189634232391,
        "timestamp": "2025-12-10T21:43:21.743473+00:00",
        "meta_object_name": "GAOFEN-1",
        "meta_object_id": "2013-018A",
        "meta_epoch": "2025-12-10T14:25:48.539136",
        "meta_mean_motion": 14.76527738,
        "meta_eccentricity": 0.00180247,
        "meta_inclination": 97.9325,
        "meta_ra_of_asc_node": 55.2981,
        "meta_arg_of_pericenter": 149.4686,
        "meta_mean_anomaly": 210.7577,
        "meta_ephemeris_type": 0,
        "meta_classification_type": "U",
        "meta_norad_cat_id": 39150,
        "meta_element_set_no": 999,
        "meta_rev_at_epoch": 68041,
        "meta_bstar": 0.00016272292,
        "meta_mean_motion_dot": 1.086e-05,
        "meta_mean_motion_ddot": 0,
        "tle_line1": "1 39150U 13018A   25344.60125624  .00001086  00000+0  16272-3 0  9990",
        "tle_line2": "2 39150  97.9325  55.2981 0018024 149.4686 210.7577 14.76527738680416"
      },
      "geometry": {
        "type": "Point",
        "coordinates": [
          -123.65639881896647,
          5.342009707759433
        ]
      }
    }
  ]
}